{"type": "FeatureCollection", "features": [ {"type": "Feature", "properties": {"norad_id": 66698, "name": "IRIDE FM4", "group": "last-30-days", "lat": -36.337249580706924, "lon": -112.92419842319943, "alt_km": 518.2437178257014, "timestamp": "2025-12-27T02:10:14.906716+00:00", "meta": {"OBJECT_NAME": "IRIDE FM4", "OBJECT_ID": "2025-276AJ", "EPOCH": "2025-12-26T20:00:01.999008", "MEAN_MOTION": 15.17423349, "ECCENTRICITY": 0.0002838, "INCLINATION": 97.4385, "RA_OF_ASC_NODE": 72.3382, "ARG_OF_PERICENTER": 234.7304, "MEAN_ANOMALY": 18.3438, "EPHEMERIS_TYPE": 0, "CLASSIFICATION_TYPE": "U", "NORAD_CAT_ID": 66698, "ELEMENT_SET_NO": 999, "REV_AT_EPOCH": 130, "BSTAR": -0.002466, "MEAN_MOTION_DOT": -0.00049019, "MEAN_MOTION_DDOT": 0}, "tle": {"line1": "1 66698U 25276AJ  25360.83335647 -.00049019  00000+0 -24660-2 0  9996", "line2": "2 66698  97.4385  72.3382 0002838 234.7304  18.3438 15.17423349  1302"}}, "geometry": {"type": "Point", "coordinates": [-112.92419842319943, -36.337249580706924]}}, {"type": "Feature", "properties": {"norad_id": 66699, "name": "IRIDE FM5", "group": "last-30-days", "lat": -38.21073543046774, "lon": -113.30847472852642, "alt_km": 518.7310635935655, "timestamp": "2025-12-27T02:10:14.906726+00:00", "meta": {"OBJECT_NAME": "IRIDE FM5", "OBJECT_ID": "2025-276AK", "EPOCH": "2025-12-26T12:33:00.445248", "MEAN_MOTION": 15.17468684, "ECCENTRICITY": 0.0003106, "INCLINATION": 97.4403, "RA_OF_ASC_NODE": 72.0389, "ARG_OF_PERICENTER": 280.927, "MEAN_ANOMALY": 79.1614, "EPHEMERIS_TYPE": 0, "CLASSIFICATION_TYPE": "U", "NORAD_CAT_ID": 66699, "ELEMENT_SET_NO": 999, "REV_AT_EPOCH": 421, "BSTAR": 0.0028356, "MEAN_MOTION_DOT": 0.00057122, "MEAN_MOTION_DDOT": 0}, "tle": {"line1": "1 66699U 25276AK  25360.52292182  .00057122  00000+0  28356-2 0  9997", "line2": "2 66699  97.4403  72.0389 0003106 280.9270  79.1614 15.17468684  4217"}}, "geometry": {"type": "Point", "coordinates": [-113.30847472852642, -38.21073543046774]}}, {"type": "Feature", "properties": {"norad_id": 66700, "name": "IRIDE FM6", "group": "last-30-days", "lat": -56.42570563902293, "lon": 83.99486612797949, "alt_km": 519.358154371449, "timestamp": "2025-12-27T02:10:14.906738+00:00", "meta": {"OBJECT_NAME": "IRIDE FM6", "OBJECT_ID": "2025-276AL", "EPOCH": "2025-12-26T16:55:54.837120", "MEAN_MOTION": 15.18286268, "ECCENTRICITY": 0.0002034, "INCLINATION": 97.4413, "RA_OF_ASC_NODE": 72.2597, "ARG_OF_PERICENTER": 150.6509, "MEAN_ANOMALY": 209.4839, "EPHEMERIS_TYPE": 0, "CLASSIFICATION_TYPE": "U", "NORAD_CAT_ID": 66700, "ELEMENT_SET_NO": 999, "REV_AT_EPOCH": 424, "BSTAR": 0.00051488, "MEAN_MOTION_DOT": 0.00010495, "MEAN_MOTION_DDOT": 0}, "tle": {"line1": "1 66700U 25276AL  25360.70549580  .00010495  00000+0  51488-3 0  9992", "line2": "2 66700  97.4413  72.2597 0002034 150.6509 209.4839 15.18286268  4248"}}, "geometry": {"type": "Point", "coordinates": [83.99486612797949, -56.42570563902293]}}, {"type": "Feature", "properties": {"norad_id": 66701, "name": "IRIDE FM7", "group": "last-30-days", "lat": -38.12639845661982, "lon": -113.28505014622792, "alt_km": 517.7510369908478, "timestamp": "2025-12-27T02:10:14.906748+00:00", "meta": {"OBJECT_NAME": "IRIDE FM7", "OBJECT_ID": "2025-276AM", "EPOCH": "2025-12-26T18:52:49.751616", "MEAN_MOTION": 15.17440273, "ECCENTRICITY": 0.0003679, "INCLINATION": 97.4413, "RA_OF_ASC_NODE": 72.3043, "ARG_OF_PERICENTER": 243.8933, "MEAN_ANOMALY": 116.1922, "EPHEMERIS_TYPE": 0, "CLASSIFICATION_TYPE": "U", "NORAD_CAT_ID": 66701, "ELEMENT_SET_NO": 999, "REV_AT_EPOCH": 425, "BSTAR": 0.00026899, "MEAN_MOTION_DOT": 5.317e-05, "MEAN_MOTION_DDOT": 0}, "tle": {"line1": "1 66701U 25276AM  25360.78668694  .00005317  00000+0  26899-3 0  9994", "line2": "2 66701  97.4413  72.3043 0003679 243.8933 116.1922 15.17440273  4253"}}, "geometry": {"type": "Point", "coordinates": [-113.28505014622792, -38.12639845661982]}}, {"type": "Feature", "properties": {"norad_id": 66702, "name": "IRIDE FM8", "group": "last-30-days", "lat": -39.09984652098962, "lon": -113.50135686977305, "alt_km": 518.262572418872, "timestamp": "2025-12-27T02:10:14.906758+00:00", "meta": {"OBJECT_NAME": "IRIDE FM8", "OBJECT_ID": "2025-276AN", "EPOCH": "2025-12-26T18:52:34.404384", "MEAN_MOTION": 15.17445825, "ECCENTRICITY": 0.0002892, "INCLINATION": 97.4392, "RA_OF_ASC_NODE": 72.2957, "ARG_OF_PERICENTER": 244.1561, "MEAN_ANOMALY": 115.9374, "EPHEMERIS_TYPE": 0, "CLASSIFICATION_TYPE": "U", "NORAD_CAT_ID": 66702, "ELEMENT_SET_NO": 999, "REV_AT_EPOCH": 425, "BSTAR": 0.00031829, "MEAN_MOTION_DOT": 6.305e-05, "MEAN_MOTION_DDOT": 0}, "tle": {"line1": "1 66702U 25276AN  25360.78650931  .00006305  00000+0  31829-3 0  9997", "line2": "2 66702  97.4392  72.2957 0002892 244.1561 115.9374 15.17445825  4256"}}, "geometry": {"type": "Point", "coordinates": [-113.50135686977305, -39.09984652098962]}}, {"type": "Feature", "properties": {"norad_id": 66703, "name": "PELICAN-6", "group": "last-30-days", "lat": -44.91376674601783, "lon": -114.88700670302632, "alt_km": 519.7479811632447, "timestamp": "2025-12-27T02:10:14.906769+00:00", "meta": {"OBJECT_NAME": "PELICAN-6", "OBJECT_ID": "2025-276AP", "EPOCH": "2025-12-26T18:51:00.085824", "MEAN_MOTION": 15.17367135, "ECCENTRICITY": 0.0001223, "INCLINATION": 97.44, "RA_OF_ASC_NODE": 72.2995, "ARG_OF_PERICENTER": 212.1129, "MEAN_ANOMALY": 148.003, "EPHEMERIS_TYPE": 0, "CLASSIFICATION_TYPE": "U", "NORAD_CAT_ID": 66703, "ELEMENT_SET_NO": 999, "REV_AT_EPOCH": 425, "BSTAR": 0.00041207, "MEAN_MOTION_DOT": 8.165e-05, "MEAN_MOTION_DDOT": 0}, "tle": {"line1": "1 66703U 25276AP  25360.78541766  .00008165  00000+0  41207-3 0  9990", "line2": "2 66703  97.4400  72.2995 0001223 212.1129 148.0030 15.17367135  4254"}}, "geometry": {"type": "Point", "coordinates": [-114.88700670302632, -44.91376674601783]}}, {"type": "Feature", "properties": {"norad_id": 66704, "name": "FLOCK 4H-1", "group": "last-30-days", "lat": -66.0557752612648, "lon": 89.72537621097794, "alt_km": 519.817575536893, "timestamp": "2025-12-27T02:10:14.906781+00:00", "meta": {"OBJECT_NAME": "FLOCK 4H-1", "OBJECT_ID": "2025-276AQ", "EPOCH": "2025-12-26T20:00:01.999008", "MEAN_MOTION": 15.18174853, "ECCENTRICITY": 0.0002339, "INCLINATION": 97.4374, "RA_OF_ASC_NODE": 72.3646, "ARG_OF_PERICENTER": 159.6194, "MEAN_ANOMALY": 169.016, "EPHEMERIS_TYPE": 0, "CLASSIFICATION_TYPE": "U", "NORAD_CAT_ID": 66704, "ELEMENT_SET_NO": 999, "REV_AT_EPOCH": 241, "BSTAR": -0.002351, "MEAN_MOTION_DOT": -0.00047758, "MEAN_MOTION_DDOT": 0}, "tle": {"line1": "1 66704U 25276AQ  25360.83335647 -.00047758  00000+0 -23510-2 0  9995", "line2": "2 66704  97.4374  72.3646 0002339 159.6194 169.0160 15.18174853  2412"}}, "geometry": {"type": "Point", "coordinates": [89.72537621097794, -66.0557752612648]}}, {"type": "Feature", "properties": {"norad_id": 66705, "name": "FLOCK 4H-2", "group": "last-30-days", "lat": -62.64647155237427, "lon": 87.2440413497029, "alt_km": 518.4093828571167, "timestamp": "2025-12-27T02:10:14.906792+00:00", "meta": {"OBJECT_NAME": "FLOCK 4H-2", "OBJECT_ID": "2025-276AR", "EPOCH": "2025-12-26T18:32:31.013088", "MEAN_MOTION": 15.18287206, "ECCENTRICITY": 3.86e-05, "INCLINATION": 97.4371, "RA_OF_ASC_NODE": 72.3057, "ARG_OF_PERICENTER": 119.2954, "MEAN_ANOMALY": 240.8319, "EPHEMERIS_TYPE": 0, "CLASSIFICATION_TYPE": "U", "NORAD_CAT_ID": 66705, "ELEMENT_SET_NO": 999, "REV_AT_EPOCH": 425, "BSTAR": 0.0023393, "MEAN_MOTION_DOT": 0.00048168, "MEAN_MOTION_DDOT": 0}, "tle": {"line1": "1 66705U 25276AR  25360.77258117  .00048168  00000+0  23393-2 0  9998", "line2": "2 66705  97.4371  72.3057 0000386 119.2954 240.8319 15.18287206  4257"}}, "geometry": {"type": "Point", "coordinates": [87.2440413497029, -62.64647155237427]}}, {"type": "Feature", "properties": {"norad_id": 66706, "name": "FLOCK 4H-3", "group": "last-30-days", "lat": -51.038785790490394, "lon": -116.68666479756953, "alt_km": 518.1798981818911, "timestamp": "2025-12-27T02:10:14.906802+00:00", "meta": {"OBJECT_NAME": "FLOCK 4H-3", "OBJECT_ID": "2025-276AS", "EPOCH": "2025-12-26T18:49:23.499264", "MEAN_MOTION": 15.17523228, "ECCENTRICITY": 0.0003078, "INCLINATION": 97.4437, "RA_OF_ASC_NODE": 72.3168, "ARG_OF_PERICENTER": 227.903, "MEAN_ANOMALY": 132.1942, "EPHEMERIS_TYPE": 0, "CLASSIFICATION_TYPE": "U", "NORAD_CAT_ID": 66706, "ELEMENT_SET_NO": 999, "REV_AT_EPOCH": 425, "BSTAR": 0.00028699, "MEAN_MOTION_DOT": 5.69e-05, "MEAN_MOTION_DDOT": 0}, "tle": {"line1": "1 66706U 25276AS  25360.78429976  .00005690  00000+0  28699-3 0  9991", "line2": "2 66706  97.4437  72.3168 0003078 227.9030 132.1942 15.17523228  4258"}}, "geometry": {"type": "Point", "coordinates": [-116.68666479756953, -51.038785790490394]}}, {"type": "Feature", "properties": {"norad_id": 66707, "name": "FLOCK 4H-4", "group": "last-30-days", "lat": -25.90767325100505, "lon": -111.03993809563748, "alt_km": 517.561998375123, "timestamp": "2025-12-27T02:10:14.906815+00:00", "meta": {"OBJECT_NAME": "FLOCK 4H-4", "OBJECT_ID": "2025-276AT", "EPOCH": "2025-12-26T18:56:02.641344", "MEAN_MOTION": 15.17261029, "ECCENTRICITY": 0.0003699, "INCLINATION": 97.4422, "RA_OF_ASC_NODE": 72.3043, "ARG_OF_PERICENTER": 233.2725, "MEAN_ANOMALY": 126.8169, "EPHEMERIS_TYPE": 0, "CLASSIFICATION_TYPE": "U", "NORAD_CAT_ID": 66707, "ELEMENT_SET_NO": 999, "REV_AT_EPOCH": 425, "BSTAR": 0.0004997, "MEAN_MOTION_DOT": 9.888e-05, "MEAN_MOTION_DDOT": 0}, "tle": {"line1": "1 66707U 25276AT  25360.78891946  .00009888  00000+0  49970-3 0  9990", "line2": "2 66707  97.4422  72.3043 0003699 233.2725 126.8169 15.17261029  4254"}}, "geometry": {"type": "Point", "coordinates": [-111.03993809563748, -25.90767325100505]}}]}